IRIDIUM 57              
1 25273U 98019B   25039.38404589  .00000789  00000+0  26665-3 0  9997
2 25273  86.3988 199.1665 0002064  93.7472 266.3961 14.35721907406309
IRIDIUM 63              
1 25286U 98021B   25039.51889616  .00000693  00000+0  23017-3 0  9999
2 25286  86.4024 136.1078 0001996  92.2490 267.8935 14.36370266405373
IRIDIUM 69              
1 25319U 98026A   25039.57740430  .00001088  00000+0  33448-3 0  9995
2 25319  86.4034 149.7456 0004373  92.2527 267.9174 14.40742251404540
IRIDIUM 71              
1 25320U 98026B   25039.53271073  .00000985  00000+0  30066-3 0  9993
2 25320  86.4027 144.4842 0003734 123.8738 236.2817 14.40962194405061
IRIDIUM 73              
1 25344U 98032C   25039.56825177  .00001132  00000+0  27887-3 0  9991
2 25344  86.4393 101.4629 0002894  89.2973 270.8564 14.51416715411909
IRIDIUM 82              
1 25467U 98051A   25039.63637954  .00031787  00000+0  11303-2 0  9994
2 25467  86.3746 172.5085 0100730  62.6490 298.4963 15.24059463404329
